ALOS-4 (DAICHI-4)       
1 60182U 24123A   24221.54502695  .00005471  00000+0  73891-3 0  9993
2 60182  97.9218 317.4569 0001553  98.7259 261.4128 14.79473988  5687
